NORAD_CAT_ID,OBJECT_NAME,OBJECT_TYPE,EPOCH,MEAN_MOTION,ECCENTRICITY,INCLINATION,RA_OF_ASC_NODE,ARG_OF_PERICENTER,MEAN_ANOMALY,BSTAR,MEAN_MOTION_DOT,MEAN_MOTION_DDOT,TLE_LINE0,TLE_LINE1,TLE_LINE2,SEMIMAJOR_AXIS,PERIOD,APOGEE,PERIGEE,DECAYED
50806.0,STARLINK-3335,PAYLOAD,2024-06-19 19:00:22,15.08834438,0.000176,53.2174,97.8605,86.9682,273.1512,1.3024e-05,-8.1e-07,0.0,0 STARLINK-3335,1 50806U 22001D   24171.79193284 -.00000081  00000-0  13024-4 0  9996,2 50806  53.2174  97.8605 0001760  86.9682 273.1512 15.08834438135757,6917.897,95.438,540.98,538.545,0.0
50806.0,STARLINK-3335,PAYLOAD,2024-06-20 12:29:37,15.08841393,0.0001447,53.2175,94.5915,88.5928,271.5229,7.0762e-06,-1.75e-06,0.0,0 STARLINK-3335,1 50806U 22001D   24172.52056848 -.00000175  00000-0  70762-5 0  9999,2 50806  53.2175  94.5915 0001447  88.5928 271.5229 15.08841393135866,6917.876,95.437,540.742,538.74,0.0
50806.0,STARLINK-3335,PAYLOAD,2024-06-20 22:01:55,15.08843697,0.0001593,53.2176,92.809,84.1298,275.9875,7.2878e-06,-1.72e-06,0.0,0 STARLINK-3335,1 50806U 22001D   24172.91800731 -.00000172  00000-0  72878-5 0  9997,2 50806  53.2176  92.8090 0001593  84.1298 275.9875 15.08843697135927,6917.869,95.437,540.836,538.632,0.0
50806.0,STARLINK-3335,PAYLOAD,2024-06-20 23:37:18,15.08844213,0.0001575,53.2177,92.5113,85.2217,274.8955,1.8367e-05,4e-08,0.0,0 STARLINK-3335,1 50806U 22001D   24172.98424648  .00000004  00000-0  18367-4 0  9998,2 50806  53.2177  92.5113 0001575  85.2217 274.8955 15.08844213137209,6917.868,95.437,540.822,538.643,0.0
50806.0,STARLINK-3335,PAYLOAD,2024-06-21 04:23:27,15.08850331,0.0001446,53.2175,91.6172,91.9727,268.1431,-2.9775e-06,-3.35e-06,0.0,0 STARLINK-3335,1 50806U 22001D   24173.18296210 -.00000335  00000-0 -29775-5 0  9998,2 50806  53.2175  91.6172 0001446  91.9727 268.1431 15.08850331135963,6917.849,95.437,540.714,538.713,0.0
50806.0,STARLINK-3335,PAYLOAD,2024-06-21 21:52:43,15.08831828,0.0001682,53.2169,88.346,92.3699,267.7486,-2.8063e-08,-2.88e-06,0.0,0 STARLINK-3335,1 50806U 22001D   24173.91161588 -.00000288  00000-0 -28063-7 0  9996,2 50806  53.2169  88.3460 0001682  92.3699 267.7486 15.08831828136072,6917.905,95.438,540.934,538.607,0.0
50806.0,STARLINK-3335,PAYLOAD,2024-06-22 01:03:29,15.08832972,0.0001422,53.2175,87.7508,97.4933,262.6221,-2.1042e-05,-6.23e-06,0.0,0 STARLINK-3335,1 50806U 22001D   24174.04409494 -.00000623  00000-0 -21042-4 0  9992,2 50806  53.2175  87.7508 0001422  97.4933 262.6221 15.08832972137369,6917.902,95.438,540.751,538.783,0.0
50806.0,STARLINK-3335,PAYLOAD,2024-06-22 21:43:28,15.08926968,0.000194,53.2176,83.8848,81.0954,279.0257,-0.0011545,-0.00018659,0.0,0 STARLINK-3335,1 50806U 22001D   24174.90519128 -.00018659  00000-0 -11545-2 0  9996,2 50806  53.2176  83.8848 0001940  81.0954 279.0257 15.08926968136225,6917.615,95.432,540.822,538.138,0.0
50806.0,STARLINK-3335,PAYLOAD,2024-06-23 21:34:17,15.08836813,0.0001295,53.2177,79.4274,95.403,264.711,5.2773e-05,5.52e-06,0.0,0 STARLINK-3335,1 50806U 22001D   24175.89881367  .00000552  00000-0  52773-4 0  9993,2 50806  53.2177  79.4274 0001295  95.4030 264.7110 15.08836813137642,6917.89,95.438,540.651,538.859,0.0
50806.0,STARLINK-3335,PAYLOAD,2024-06-24 02:20:26,15.08841366,0.0001341,53.2183,78.5354,96.0019,264.1126,8.8232e-05,1.117e-05,0.0,0 STARLINK-3335,1 50806U 22001D   24176.09752976  .00001117  00000-0  88232-4 0  9996,2 50806  53.2183  78.5354 0001341  96.0019 264.1126 15.08841366136407,6917.876,95.437,540.669,538.814,0.0
50806.0,STARLINK-3335,PAYLOAD,2024-06-24 21:25:05,15.08834544,0.000181,53.2183,74.9673,76.825,283.2944,-1.326e-05,-4.99e-06,0.0,0 STARLINK-3335,1 50806U 22001D   24176.89242206 -.00000499  00000-0 -13260-4 0  9997,2 50806  53.2183  74.9673 0001810  76.8250 283.2944 15.08834544136528,6917.897,95.438,541.014,538.51,0.0
50806.0,STARLINK-3335,PAYLOAD,2024-06-25 00:35:51,15.08837255,0.0001503,53.2183,74.3726,79.6902,280.426,1.0467e-05,-1.21e-06,0.0,0 STARLINK-3335,1 50806U 22001D   24177.02489923 -.00000121  00000-0  10467-4 0  9999,2 50806  53.2183  74.3726 0001503  79.6902 280.4260 15.08837255137810,6917.889,95.438,540.794,538.714,0.0
50806.0,STARLINK-3335,PAYLOAD,2024-06-25 22:51:14,15.08845605,0.0001548,53.2191,70.209,79.4646,280.652,3.7853e-05,3.15e-06,0.0,0 STARLINK-3335,1 50806U 22001D   24177.95225316  .00000315  00000-0  37853-4 0  9997,2 50806  53.2191  70.2090 0001548  79.4646 280.6520 15.08845605136683,6917.863,95.437,540.799,538.657,0.0
50806.0,STARLINK-3335,PAYLOAD,2024-06-26 00:26:37,15.08847867,0.0001507,53.2182,69.9116,74.0459,286.0699,8.1744e-05,1.013e-05,0.0,0 STARLINK-3335,1 50806U 22001D   24178.01849024  .00001013  00000-0  81744-4 0  9997,2 50806  53.2182  69.9116 0001507  74.0459 286.0699 15.08847867137966,6917.856,95.437,540.764,538.679,0.0
50806.0,STARLINK-3335,PAYLOAD,2024-06-26 22:42:01,15.08841713,0.0001447,53.218,65.7425,80.1196,279.996,1.3747e-05,-6.9e-07,0.0,0 STARLINK-3335,1 50806U 22001D   24178.94585479 -.00000069  00000-0  13747-4 0  9999,2 50806  53.2180  65.7425 0001447  80.1196 279.9960 15.08841713136831,6917.875,95.437,540.741,538.739,0.0
50806.0,STARLINK-3335,PAYLOAD,2024-06-27 00:17:24,15.08843521,0.0001464,53.2185,65.4472,85.4282,274.6878,2.975e-05,1.86e-06,0.0,0 STARLINK-3335,1 50806U 22001D   24179.01209289  .00000186  00000-0  29750-4 0  9990,2 50806  53.2185  65.4472 0001464  85.4282 274.6878 15.08843521138110,6917.87,95.437,540.747,538.722,0.0
50806.0,STARLINK-3335,PAYLOAD,2024-06-27 22:32:49,15.08841587,0.0001353,53.2182,61.2858,104.5338,255.5804,-7.6448e-05,-1.504e-05,0.0,0 STARLINK-3335,1 50806U 22001D   24179.93945709 -.00001504  00000-0 -76448-4 0  9998,2 50806  53.2182  61.2858 0001353 104.5338 255.5804 15.08841587136981,6917.876,95.437,540.677,538.805,0.0
50806.0,STARLINK-3335,PAYLOAD,2024-06-28 09:40:30,15.08846081,0.0001377,53.2174,59.2059,94.6389,265.476,-4.9423e-05,-1.075e-05,0.0,0 STARLINK-3335,1 50806U 22001D   24180.40313207 -.00001075  00000-0 -49423-4 0  9990,2 50806  53.2174  59.2059 0001377  94.6389 265.4760 15.08846081137057,6917.862,95.437,540.679,538.774,0.0
50806.0,STARLINK-3335,PAYLOAD,2024-06-28 22:23:35,15.08848985,0.0001486,53.2182,56.827,102.0834,258.0325,1.0294e-05,-1.24e-06,0.0,0 STARLINK-3335,1 50806U 22001D   24180.93305071 -.00000124  00000-0  10294-4 0  9995,2 50806  53.2182  56.8270 0001486 102.0834 258.0325 15.08848985137133,6917.853,95.437,540.746,538.69,0.0
50806.0,STARLINK-3335,PAYLOAD,2024-06-29 19:03:38,15.08825979,0.0001329,53.2182,52.9599,95.9076,264.2068,-3.4449e-05,-8.36e-06,0.0,0 STARLINK-3335,1 50806U 22001D   24181.79419073 -.00000836  00000-0 -34449-4 0  9997,2 50806  53.2182  52.9599 0001329  95.9076 264.2068 15.08825979138534,6917.923,95.438,540.708,538.869,0.0
50806.0,STARLINK-3335,PAYLOAD,2024-06-29 22:14:24,15.0882618,0.0001332,53.2177,52.3664,91.2473,268.8671,-4.3324e-05,-9.77e-06,0.0,0 STARLINK-3335,1 50806U 22001D   24181.92667226 -.00000977  00000-0 -43324-4 0  9995,2 50806  53.2177  52.3664 0001332  91.2473 268.8671 15.08826180137285,6917.923,95.438,540.709,538.866,0.0
50806.0,STARLINK-3335,PAYLOAD,2024-06-30 01:25:10,15.08826728,0.0001329,53.2176,51.771,91.1585,268.956,-3.5284e-05,-8.49e-06,0.0,0 STARLINK-3335,1 50806U 22001D   24182.05915265 -.00000849  00000-0 -35284-4 0  9993,2 50806  53.2176  51.7710 0001329  91.1585 268.9560 15.08826728137307,6917.921,95.438,540.705,538.867,0.0
50806.0,STARLINK-3335,PAYLOAD,2024-06-30 22:05:09,15.08848836,0.0001156,53.2181,47.9076,89.293,270.8195,0.00016586,2.353e-05,0.0,0 STARLINK-3335,1 50806U 22001D   24182.92025396  .00002353  00000-0  16586-3 0  9999,2 50806  53.2181  47.9076 0001156  89.2930 270.8195 15.08848836138700,6917.853,95.437,540.518,538.919,0.0
50806.0,STARLINK-3335,PAYLOAD,2024-07-01 13:59:02,15.08832859,0.0001278,53.2187,44.9372,92.2448,267.869,0.0001793,2.566e-05,0.0,0 STARLINK-3335,1 50806U 22001D   24183.58266352  .00002566  00000-0  17930-3 0  9991,2 50806  53.2187  44.9372 0001278  92.2448 267.8690 15.08832859137539,6917.902,95.438,540.651,538.883,0.0
50806.0,STARLINK-3335,PAYLOAD,2024-07-01 21:55:57,15.08834843,0.0001222,53.2184,43.449,102.9989,257.114,0.00014819,2.071e-05,0.0,0 STARLINK-3335,1 50806U 22001D   24183.91386457  .00002071  00000-0  14819-3 0  9991,2 50806  53.2184  43.4490 0001222 102.9989 257.1140 15.08834843138852,6917.896,95.438,540.607,538.916,0.0
50806.0,STARLINK-3335,PAYLOAD,2024-07-02 13:49:49,15.08838362,0.000155,53.2182,40.4732,84.5484,275.5685,-6.6353e-06,-3.94e-06,0.0,0 STARLINK-3335,1 50806U 22001D   24184.57626830 -.00000394  00000-0 -66353-5 0  9996,2 50806  53.2182  40.4732 0001550  84.5484 275.5685 15.08838362137683,6917.885,95.438,540.823,538.678,0.0
50806.0,STARLINK-3335,PAYLOAD,2024-07-02 21:46:45,15.0884484,0.0001141,53.2183,38.9868,82.1477,277.9645,-8.4524e-05,-1.633e-05,0.0,0 STARLINK-3335,1 50806U 22001D   24184.90746664 -.00001633  00000-0 -84524-4 0  9997,2 50806  53.2183  38.9868 0001141  82.1477 277.9645 15.08844840137734,6917.866,95.437,540.52,538.941,0.0
50806.0,STARLINK-3335,PAYLOAD,2024-07-03 00:57:31,15.08848295,0.0001211,53.2185,38.391,79.6752,280.4376,-5.9305e-05,-1.232e-05,0.0,0 STARLINK-3335,1 50806U 22001D   24185.03994351 -.00001232  00000-0 -59305-4 0  9994,2 50806  53.2185  38.3910 0001211  79.6752 280.4376 15.08848295139025,6917.855,95.437,540.558,538.882,0.0
50806.0,STARLINK-3335,PAYLOAD,2024-07-03 21:37:31,15.08846072,0.0001012,53.2165,34.523,79.5924,280.5182,3.2048e-05,2.22e-06,0.0,0 STARLINK-3335,1 50806U 22001D   24185.90106200  .00000222  00000-0  32048-4 0  9999,2 50806  53.2165  34.5230 0001012  79.5924 280.5182 15.08846072137884,6917.862,95.437,540.427,539.027,0.0
50806.0,STARLINK-3335,PAYLOAD,2024-07-04 13:31:23,15.08836471,0.000108,53.2174,31.5547,86.9352,273.1764,8.1596e-05,1.011e-05,0.0,0 STARLINK-3335,1 50806U 22001D   24186.56346627  .00001011  00000-0  81596-4 0  9990,2 50806  53.2174  31.5547 0001080  86.9352 273.1764 15.08836471139253,6917.891,95.438,540.503,539.009,0.0
